STARLINK-1947_new
1 16797C 20074BL  21325.99937091  .00021540  00000-0  30144-3 0  3256
2 16797  53.0551 117.6736 0000932  64.1620 243.8348 15.56165359    17
STARLINK-1947_old
1 26797C 20074BL  21325.03671976  .00019838  00000-0  27797-3 0  3255
2 26797  53.0551 122.3350 0000891  68.3573 243.6118 15.56132802    19
